ONEWEB-0291             
1 49081U 21075G   25013.22831948 -.00000326  00000+0 -87375-3 0  9990
2 49081  87.9095 109.4541 0002062 103.3118 256.8243 13.17650396165130
ONEWEB-0293             
1 49082U 21075H   25013.32955981 -.00000287  00000+0 -77203-3 0  9991
2 49082  87.9100 109.4586 0001898 109.8311 250.3025 13.17649009165179
ONEWEB-0294             
1 49083U 21075J   25013.46816057  .00001415  00000+0  38964-2 0  9999
2 49083  87.8868  94.1492 0002703 108.4871 251.6551 13.12462693167399
ONEWEB-0295             
1 49084U 21075K   25013.25278658  .00000105  00000+0  23664-3 0  9993
2 49084  87.9101 109.4534 0002092  98.6850 261.4519 13.17649928165121
ONEWEB-0296             
1 49085U 21075L   25013.44872935 -.00000203  00000+0 -60086-3 0  9993
2 49085  87.8874  94.1578 0002528  98.0256 262.1159 13.12443283166405
ONEWEB-0297             
1 49086U 21075M   25013.63204437 -.00005511  00000+0 -15369-1 0  9990
2 49086  87.8878  94.1449 0002254 100.8884 259.2498 13.12415091168021
ONEWEB-0298             
1 49087U 21075N   25013.48490770  .00008927  00000+0  22927-1 0  9991
2 49087  87.9111 109.4281 0002081 103.7932 256.3431 13.17674961165188
ONEWEB-0299             
1 49088U 21075P   25013.48649406  .00000026  00000+0  33289-4 0  9992
2 49088  87.9094 109.3843 0001778  96.7980 263.3353 13.17647102165164
